STARLINK-6074           
1 56553U 23065BC  24031.09837919  .00000434  00000+0  47222-4 0  9997
2 56553  43.0031  79.2386 0000952 273.8264  86.2469 15.02531866 40084
STARLINK-6295           
1 56554U 23065BD  24030.63746778  .00010341  00000+0  77913-3 0  9996
2 56554  43.0030  81.8003 0001080 268.7065  91.3654 15.02551671 40791
STARLINK-6252           
1 56555U 23065BE  24031.09171864 -.00000147  00000+0  41990-5 0  9998
2 56555  43.0044  79.1876 0001175 272.1562  87.9146 15.02538118 40081
STARLINK-5302           
1 56556U 23065BF  24030.62970109  .00002691  00000+0  21418-3 0  9992
2 56556  43.0031  81.7411 0001190 274.3700  85.7007 15.02542372 40794
STARLINK-6265           
1 56557U 23065BG  24030.49008561  .00000532  00000+0  54444-4 0  9990
2 56557  43.0044  82.4118 0001096 256.9231 103.1489 15.02537935 40777
STARLINK-6286           
1 56558U 23065BH  24030.62081828  .00007249  00000+0  55092-3 0  9994
2 56558  43.0031  81.6737 0001243 263.3509  96.7192 15.02550859 40796
STARLINK-30122          
1 56688U 23067A   24030.60763401  .00006625  00000+0  50484-3 0  9999
2 56688  43.0016 133.9590 0001122 262.7627  97.3087 15.02550304 40033
STARLINK-30129          
1 56689U 23067B   24030.59764154  .00003871  00000+0  30137-3 0  9997
2 56689  43.0019 133.8914 0001225 261.0645  99.0059 15.02546247 39961
STARLINK-30124          
1 56690U 23067C   24030.72726749  .00016783  00000+0  12539-2 0  9993
2 56690  43.0022 133.1552 0001167 270.7434  89.3274 15.02554666 39130
STARLINK-30087          
1 56691U 23067D   24030.70345777  .00070063  00000+0  30818-2 0  9991
2 56691  42.9999 118.5948 0017829  18.8797 341.2710 15.20854824 40151
STARLINK-30036          
1 56692U 23067E   24030.78709054  .00038414  00000+0  28412-2 0  9993
2 56692  43.0025 132.7642 0001153 305.6287  54.4448 15.02562765 39145
STARLINK-30067          
1 56693U 23067F   24030.71395583  .00009129  00000+0  68990-3 0  9992
2 56693  43.0029 133.0752 0001381 281.1779  78.8908 15.02539143 39980
STARLINK-30126          
1 56694U 23067G   24030.78376279  .00027799  00000+0  20636-2 0  9998
2 56694  43.0022 132.7377 0001387 261.5669  98.5016 15.02557279 39999
STARLINK-30121          
1 56695U 23067H   24030.57766816  .00001174  00000+0  10198-3 0  9998
2 56695  43.0018 133.7469 0001179 264.4245  95.6463 15.02538574 39967
STARLINK-30130          
1 56697U 23067K   24030.75045879  .00005515  00000+0  42313-3 0  9996
2 56697  43.0024 132.4830 0001574 255.4401 104.6266 15.02527306 39735
STARLINK-30068          
1 56698U 23067L   24030.69090500  .00039746  00000+0  29387-2 0  9999
2 56698  43.0024 119.9088 0001356 267.9300  92.1387 15.02561538 39870
STARLINK-30127          
1 56699U 23067M   24030.64081278  .00003142  00000+0  24752-3 0  9990
2 56699  43.0023 133.3840 0001351 273.1856  86.8832 15.02543666 39974
STARLINK-30053          
1 56700U 23067N   24030.77043365  .00008946  00000+0  67598-3 0  9994
2 56700  43.0028 132.6364 0001361 277.5681  82.5007 15.02563829 39992
STARLINK-30125          
1 56701U 23067P   24030.63415863 -.00000615  00000+0 -30439-4 0  9998
2 56701  43.0025 133.3328 0001076 264.7259  95.3461 15.02538877 39979
STARLINK-30117          
1 56702U 23067Q   24030.60430149  .00006767  00000+0  51528-3 0  9993
2 56702  43.0026 133.9042 0001387 262.8464  97.2221 15.02556227 39965
STARLINK-30132          
1 56703U 23067R   24030.69730792  .00000087  00000+0  21493-4 0  9998
2 56703  43.0026 132.9472 0001098 268.0561  92.0156 15.02535537 39980
STARLINK-30066          
1 56704U 23067S   24030.61084825  .00002169  00000+0  17557-3 0  9998
2 56704  43.0014 133.1383 0001216 258.7958 101.2748 15.02538990 39975
STARLINK-30080          
1 56705U 23067T   24030.68758558  .00030546  00000+0  22656-2 0  9992
2 56705  43.0022 119.9482 0001300 266.2401  93.8293 15.02550274 40138
STARLINK-30079          
1 56706U 23067U   24030.62416787  .00001291  00000+0  11060-3 0  9995
2 56706  43.0024 133.2549 0001340 253.3900 106.6795 15.02540377 39972
STARLINK-30070          
1 56707U 23067V   24030.62750466  .00000152  00000+0  26318-4 0  9999
2 56707  43.0027 133.2811 0001369 265.2546  94.8140 15.02531681 39977
STARLINK-30071          
1 56708U 23067W   24030.68065493  .00003443  00000+0  26976-3 0  9990
2 56708  43.0040 132.8182 0001353 263.1615  96.9074 15.02542119 39984
STARLINK-30085          
1 56709U 23067X   24030.62083760  .00001551  00000+0  12984-3 0  9994
2 56709  43.0033 133.2297 0001145 283.8536  76.2179 15.02536040 39713
STARLINK-6197           
1 56767U 23078A   24030.73380231  .00000462  00000+0  46483-4 0  9997
2 56767  70.0012 143.3230 0002939 269.4350  90.6472 14.98329426 37007
STARLINK-6198           
1 56768U 23078B   24030.57912923 -.00000160  00000+0 -56564-5 0  9998
2 56768  69.9997 103.8442 0002840 272.4687  87.6147 14.98325269 37962
STARLINK-5978           
1 56769U 23078C   24030.72544949  .00000506  00000+0  50200-4 0  9997
2 56769  70.0006 143.2917 0002890 266.6278  93.4551 14.98330624 37008
STARLINK-6342           
1 56770U 23078D   24030.72962684  .00000131  00000+0  18742-4 0  9998
2 56770  70.0014 143.3096 0002679 257.7395 102.3464 14.98327990 37009
STARLINK-6339           
1 56771U 23078E   24031.25002315 -.00956503  00000+0 -17963-1 0  9990
2 56771  69.9990  84.9947 0003381 270.5905 164.8231 15.50890038 38740
STARLINK-6275           
1 56772U 23078F   24030.72127656  .00000005  00000+0  82398-5 0  9991
2 56772  70.0005 143.2785 0003042 266.2492  93.8319 14.98329413 37008
STARLINK-6296           
1 56773U 23078G   24031.25002315 -.00919674  00000+0 -17165-1 0  9994
2 56773  69.9991  84.9934 0003180 273.7760 162.5907 15.51387622 38746
STARLINK-6190           
1 56774U 23078H   24030.70892341 -.00000920  00000+0 -69332-4 0  9991
2 56774  70.0001 143.2361 0003071 269.6605  90.4202 14.98329212 37002
STARLINK-6292           
1 56775U 23078J   24031.25002315 -.00816366  00000+0 -15041-1 0  9991
2 56775  69.9991  84.9913 0003183 274.5982 162.6019 15.51435888 38746
STARLINK-6274           
1 56776U 23078K   24030.64572553 -.00000758  00000+0 -55734-4 0  9996
2 56776  70.0003 103.6760 0002621 256.7575 103.3291 14.98324273 37972
STARLINK-5582           
1 56777U 23078L   24030.67099609  .00000269  00000+0  30307-4 0  9990
2 56777  70.0004 123.6309 0002774 260.9116  99.1730 14.98324488 37486
STARLINK-6304           
1 56778U 23078M   24030.64154738 -.00000378  00000+0 -23868-4 0  9990
2 56778  70.0004 103.6615 0002667 258.3619 101.7240 14.98329233 37978
STARLINK-6231           
1 56779U 23078N   24030.95031193 -.00001037  00000+0 -79170-4 0  9994
2 56779  69.9990 102.7285 0003087 267.5770  92.5036 14.98325138 38285
STARLINK-5963           
1 56780U 23078P   24030.66682457 -.00002154  00000+0 -17283-3 0  9996
2 56780  70.0011 123.6291 0002639 256.2649 103.8216 14.98323242 37486
STARLINK-5989           
1 56781U 23078Q   24030.65012371 -.00000287  00000+0 -16266-4 0  9994
2 56781  70.0006 123.5575 0002889 262.9231  97.1600 14.98323709 37483
STARLINK-6352           
1 56782U 23078R   24030.63738077 -.00000979  00000+0 -74287-4 0  9996
2 56782  69.9994 103.6459 0002795 260.9763  99.1080 14.98323560 37974
STARLINK-6357           
1 56783U 23078S   24030.62902183  .00006287  00000+0  53412-3 0  9999
2 56783  69.9994 103.6158 0003033 270.9397  89.1414 14.98337150 37971
STARLINK-6354           
1 56784U 23078T   24030.63319847 -.00001456  00000+0 -11427-3 0  9995
2 56784  69.9995 103.6302 0002886 268.3665  91.7163 14.98319877 37974
STARLINK-5931           
1 56785U 23078U   24030.65847211 -.00000757  00000+0 -55636-4 0  9993
2 56785  70.0002 123.5860 0003030 267.0020  93.0792 14.98325057 38173
STARLINK-6341           
1 56786U 23078V   24030.62485111  .00000077  00000+0  14264-4 0  9993
2 56786  69.9994 103.6017 0002883 269.2034  90.8795 14.98328833 37978
STARLINK-6326           
1 56787U 23078W   24030.61667039 -.00000417  00000+0 -27158-4 0  9990
2 56787  69.9993 103.5709 0002942 269.1639  90.9183 14.98326863 37974
STARLINK-6336           
1 56788U 23078X   24030.62067614  .00000197  00000+0  24336-4 0  9993
2 56788  69.9994 103.5865 0002842 261.7432  98.3405 14.98328486 37979
STARLINK-6325           
1 56789U 23078Y   24031.25002315 -.00029178  00000+0 -49541-3 0  9997
2 56789  69.9998  84.9887 0003350 271.4397 167.4765 15.51243962 38741
STARLINK-6345           
1 56790U 23078Z   24031.25002315 -.00389937  00000+0 -69287-2 0  9999
2 56790  69.9993  84.9902 0003224 275.3876 162.6571 15.51380556 38744
STARLINK-5977           
1 56791U 23078AA  24030.68766120 -.00001494  00000+0 -11740-3 0  9998
2 56791  69.9998 123.2898 0003131 270.0441  90.0360 14.98333618 37496
STARLINK-6046           
1 56792U 23078AB  24030.66264231 -.00001957  00000+0 -15627-3 0  9995
2 56792  70.0002 123.6002 0002989 267.5511  92.5305 14.98334052 37484
STARLINK-6052           
1 56793U 23078AC  24030.63759898 -.00000518  00000+0 -35668-4 0  9991
2 56793  70.0004 123.5145 0003011 266.3603  93.7212 14.98325829 37482
STARLINK-6060           
1 56794U 23078AD  24030.61232650  .00000089  00000+0  15250-4 0  9998
2 56794  69.9992 103.5568 0003123 268.4336  91.6465 14.98329747 37977
STARLINK-6061           
1 56795U 23078AE  24030.59145662  .00002901  00000+0  25079-3 0  9996
2 56795  69.9998 103.4820 0003011 270.4236  89.6578 14.98330770 37972
STARLINK-6049           
1 56796U 23078AF  24030.72105739 -.00000267  00000+0 -14570-4 0  9993
2 56796  70.0011 123.4047 0002795 255.3904 104.6945 14.98323897 37492
STARLINK-6058           
1 56797U 23078AG  24030.64611430 -.00000626  00000+0 -44646-4 0  9991
2 56797  69.9995 123.5389 0002970 268.1348  91.9471 14.98325528 37484
STARLINK-6068           
1 56798U 23078AH  24030.60815627 -.00000311  00000+0 -18268-4 0  9994
2 56798  69.9996 103.5422 0003073 269.5135  90.5672 14.98326167 38643
